[{"OBJECT_NAME":"STARLINK-2209","OBJECT_ID":"2021-017BG","EPOCH":"2026-03-10T00:00:02.999808","MEAN_MOTION":15.44197339,"ECCENTRICITY":0.00010832,"INCLINATION":53.1594,"RA_OF_ASC_NODE":201.998,"ARG_OF_PERICENTER":72.9426,"MEAN_ANOMALY":205.8018,"EPHEMERIS_TYPE":0,"CLASSIFICATION_TYPE":"U","NORAD_CAT_ID":47776,"ELEMENT_SET_NO":999,"REV_AT_EPOCH":581,"BSTAR":9.0478385e-5,"MEAN_MOTION_DOT":3.798e-5,"MEAN_MOTION_DDOT":0},{"OBJECT_NAME":"GHOST-3","OBJECT_ID":"2023-084AC","EPOCH":"2026-03-09T21:14:09.446784","MEAN_MOTION":15.44198134,"ECCENTRICITY":0.00064568,"INCLINATION":97.6062,"RA_OF_ASC_NODE":212.4847,"ARG_OF_PERICENTER":293.3516,"MEAN_ANOMALY":66.7052,"EPHEMERIS_TYPE":0,"CLASSIFICATION_TYPE":"U","NORAD_CAT_ID":56958,"ELEMENT_SET_NO":999,"REV_AT_EPOCH":15267,"BSTAR":0.00048344236,"MEAN_MOTION_DOT":0.00022139,"MEAN_MOTION_DDOT":0}]
